[
    {
       "CCSDS_OMM_VERS":"2.0",
       "COMMENT":"GENERATED VIA SPACE-TRACK.ORG API",
       "CREATION_DATE":"2021-12-19T15:16:11",
       "ORIGINATOR":"18 SPCS",
       "OBJECT_NAME":"ELECTRON KICK STAGE R\/B",
       "OBJECT_ID":"2021-120E",
       "CENTER_NAME":"EARTH",
       "REF_FRAME":"TEME",
       "TIME_SYSTEM":"UTC",
       "MEAN_ELEMENT_THEORY":"SGP4",
       "EPOCH":"2021-12-14T05:59:03.216192",
       "MEAN_MOTION":"16.35251462",
       "ECCENTRICITY":"0.00530990",
       "INCLINATION":"42.0242",
       "RA_OF_ASC_NODE":"339.1822",
       "ARG_OF_PERICENTER":"116.2646",
       "MEAN_ANOMALY":"244.3699",
       "EPHEMERIS_TYPE":"0",
       "CLASSIFICATION_TYPE":"U",
       "NORAD_CAT_ID":"49953",
       "ELEMENT_SET_NO":"999",
       "REV_AT_EPOCH":"80",
       "BSTAR":"0.00057118000000",
       "MEAN_MOTION_DOT":"0.12583667",
       "MEAN_MOTION_DDOT":"0.0000081711000",
       "SEMIMAJOR_AXIS":"6556.602",
       "PERIOD":"88.060",
       "APOAPSIS":"213.282",
       "PERIAPSIS":"143.652",
       "OBJECT_TYPE":"ROCKET BODY",
       "RCS_SIZE":"LARGE",
       "COUNTRY_CODE":"US",
       "LAUNCH_DATE":"2021-12-09",
       "SITE":"RLLC",
       "DECAY_DATE":"2021-12-14",
       "FILE":"3244467",
       "GP_ID":"191987227",
       "TLE_LINE0":"0 ELECTRON KICK STAGE R\/B",
       "TLE_LINE1":"1 49953U 21120E   21348.24934278  .12583667  81711-5  57118-3 0  9999",
       "TLE_LINE2":"2 49953  42.0242 339.1822 0053099 116.2646 244.3699 16.35251462   806"
    },
    {
       "CCSDS_OMM_VERS":"2.0",
       "COMMENT":"GENERATED VIA SPACE-TRACK.ORG API",
       "CREATION_DATE":"2022-10-29T08:56:12",
       "ORIGINATOR":"18 SPCS",
       "OBJECT_NAME":"CZ-4B DEB",
       "OBJECT_ID":"2021-122C",
       "CENTER_NAME":"EARTH",
       "REF_FRAME":"TEME",
       "TIME_SYSTEM":"UTC",
       "MEAN_ELEMENT_THEORY":"SGP4",
       "EPOCH":"2022-10-29T06:59:48.173856",
       "MEAN_MOTION":"16.53632335",
       "ECCENTRICITY":"0.00126790",
       "INCLINATION":"97.3036",
       "RA_OF_ASC_NODE":"326.0227",
       "ARG_OF_PERICENTER":"231.9457",
       "MEAN_ANOMALY":"256.0162",
       "EPHEMERIS_TYPE":"0",
       "CLASSIFICATION_TYPE":"U",
       "NORAD_CAT_ID":"49963",
       "ELEMENT_SET_NO":"999",
       "REV_AT_EPOCH":"5007",
       "BSTAR":"0.00040084000000",
       "MEAN_MOTION_DOT":"0.62065565",
       "MEAN_MOTION_DDOT":"0.0000027154000",
       "SEMIMAJOR_AXIS":"6507.925",
       "PERIOD":"87.081",
       "APOAPSIS":"138.041",
       "PERIAPSIS":"121.539",
       "OBJECT_TYPE":"DEBRIS",
       "RCS_SIZE":"LARGE",
       "COUNTRY_CODE":"PRC",
       "LAUNCH_DATE":"2021-12-10",
       "SITE":"JSC",
       "DECAY_DATE":"2022-10-29",
       "FILE":"3637190",
       "GP_ID":"216412721",
       "TLE_LINE0":"0 CZ-4B DEB",
       "TLE_LINE1":"1 49963U 21122C   22302.29152979  .62065565  27154-5  40084-3 0  9990",
       "TLE_LINE2":"2 49963  97.3036 326.0227 0012679 231.9457 256.0162 16.53632335 50070"
    },
    {
       "CCSDS_OMM_VERS":"2.0",
       "COMMENT":"GENERATED VIA SPACE-TRACK.ORG API",
       "CREATION_DATE":"2022-04-30T07:06:19",
       "ORIGINATOR":"18 SPCS",
       "OBJECT_NAME":"CZ-4B R\/B",
       "OBJECT_ID":"2021-122D",
       "CENTER_NAME":"EARTH",
       "REF_FRAME":"TEME",
       "TIME_SYSTEM":"UTC",
       "MEAN_ELEMENT_THEORY":"SGP4",
       "EPOCH":"2022-04-29T21:30:06.851232",
       "MEAN_MOTION":"16.50212098",
       "ECCENTRICITY":"0.00151620",
       "INCLINATION":"97.2393",
       "RA_OF_ASC_NODE":"144.7653",
       "ARG_OF_PERICENTER":"228.3635",
       "MEAN_ANOMALY":"131.6373",
       "EPHEMERIS_TYPE":"0",
       "CLASSIFICATION_TYPE":"U",
       "NORAD_CAT_ID":"49964",
       "ELEMENT_SET_NO":"999",
       "REV_AT_EPOCH":"2223",
       "BSTAR":"0.00015024000000",
       "MEAN_MOTION_DOT":"0.14913834",
       "MEAN_MOTION_DDOT":"0.0000025043000",
       "SEMIMAJOR_AXIS":"6516.914",
       "PERIOD":"87.262",
       "APOAPSIS":"148.660",
       "PERIAPSIS":"128.898",
       "OBJECT_TYPE":"ROCKET BODY",
       "RCS_SIZE":"LARGE",
       "COUNTRY_CODE":"PRC",
       "LAUNCH_DATE":"2021-12-10",
       "SITE":"JSC",
       "DECAY_DATE":"2022-04-30",
       "FILE":"3422328",
       "GP_ID":"202320515",
       "TLE_LINE0":"0 CZ-4B R\/B",
       "TLE_LINE1":"1 49964U 21122D   22119.89591263  .14913834  25043-5  15024-3 0  9995",
       "TLE_LINE2":"2 49964  97.2393 144.7653 0015162 228.3635 131.6373 16.50212098 22238"
    },
    {
       "CCSDS_OMM_VERS":"2.0",
       "COMMENT":"GENERATED VIA SPACE-TRACK.ORG API",
       "CREATION_DATE":"2022-06-16T02:46:11",
       "ORIGINATOR":"18 SPCS",
       "OBJECT_NAME":"STARLINK-3307",
       "OBJECT_ID":"2021-125J",
       "CENTER_NAME":"EARTH",
       "REF_FRAME":"TEME",
       "TIME_SYSTEM":"UTC",
       "MEAN_ELEMENT_THEORY":"SGP4",
       "EPOCH":"2022-06-16T01:50:28.712544",
       "MEAN_MOTION":"16.39511435",
       "ECCENTRICITY":"0.00104250",
       "INCLINATION":"53.1826",
       "RA_OF_ASC_NODE":"190.9484",
       "ARG_OF_PERICENTER":"320.3567",
       "MEAN_ANOMALY":"41.0592",
       "EPHEMERIS_TYPE":"0",
       "CLASSIFICATION_TYPE":"U",
       "NORAD_CAT_ID":"50164",
       "ELEMENT_SET_NO":"999",
       "REV_AT_EPOCH":"3117",
       "BSTAR":"0.00819650000000",
       "MEAN_MOTION_DOT":"0.99999999",
       "MEAN_MOTION_DDOT":"0.0000124300000",
       "SEMIMAJOR_AXIS":"6545.239",
       "PERIOD":"87.831",
       "APOAPSIS":"173.928",
       "PERIAPSIS":"160.281",
       "OBJECT_TYPE":"PAYLOAD",
       "RCS_SIZE":"LARGE",
       "COUNTRY_CODE":"US",
       "LAUNCH_DATE":"2021-12-18",
       "SITE":"AFWTR",
       "DECAY_DATE":"2022-06-16",
       "FILE":"3496998",
       "GP_ID":"206215580",
       "TLE_LINE0":"0 STARLINK-3307",
       "TLE_LINE1":"1 50164U 21125J   22167.07672121  .99999999  12430-4  81965-2 0  9998",
       "TLE_LINE2":"2 50164  53.1826 190.9484 0010425 320.3567  41.0592 16.39511435 31177"
    },
    {
       "CCSDS_OMM_VERS":"2.0",
       "COMMENT":"GENERATED VIA SPACE-TRACK.ORG API",
       "CREATION_DATE":"2021-12-29T03:17:07",
       "ORIGINATOR":"18 SPCS",
       "OBJECT_NAME":"STARLINK-3280",
       "OBJECT_ID":"2021-125AE",
       "CENTER_NAME":"EARTH",
       "REF_FRAME":"TEME",
       "TIME_SYSTEM":"UTC",
       "MEAN_ELEMENT_THEORY":"SGP4",
       "EPOCH":"2021-12-28T18:39:41.974560",
       "MEAN_MOTION":"16.17012138",
       "ECCENTRICITY":"0.00593460",
       "INCLINATION":"53.2150",
       "RA_OF_ASC_NODE":"314.7233",
       "ARG_OF_PERICENTER":"188.0665",
       "MEAN_ANOMALY":"171.9426",
       "EPHEMERIS_TYPE":"0",
       "CLASSIFICATION_TYPE":"U",
       "NORAD_CAT_ID":"50184",
       "ELEMENT_SET_NO":"999",
       "REV_AT_EPOCH":"444",
       "BSTAR":"0.00064938000000",
       "MEAN_MOTION_DOT":"0.01460207",
       "MEAN_MOTION_DDOT":"0.0000116530000",
       "SEMIMAJOR_AXIS":"6605.814",
       "PERIOD":"89.053",
       "APOAPSIS":"266.882",
       "PERIAPSIS":"188.476",
       "OBJECT_TYPE":"PAYLOAD",
       "RCS_SIZE":"LARGE",
       "COUNTRY_CODE":"US",
       "LAUNCH_DATE":"2021-12-18",
       "SITE":"AFWTR",
       "DECAY_DATE":"2021-12-28",
       "FILE":"3254265",
       "GP_ID":"192677171",
       "TLE_LINE0":"0 STARLINK-3280",
       "TLE_LINE1":"1 50184U 21125AE  21362.77756915  .01460207  11653-4  64938-3 0  9993",
       "TLE_LINE2":"2 50184  53.2150 314.7233 0059346 188.0665 171.9426 16.17012138  4442"
    },
    {
       "CCSDS_OMM_VERS":"2.0",
       "COMMENT":"GENERATED VIA SPACE-TRACK.ORG API",
       "CREATION_DATE":"2022-03-07T22:46:11",
       "ORIGINATOR":"18 SPCS",
       "OBJECT_NAME":"FALCON 9 R\/B",
       "OBJECT_ID":"2021-126B",
       "CENTER_NAME":"EARTH",
       "REF_FRAME":"TEME",
       "TIME_SYSTEM":"UTC",
       "MEAN_ELEMENT_THEORY":"SGP4",
       "EPOCH":"2022-03-07T15:32:05.989920",
       "MEAN_MOTION":"11.19397071",
       "ECCENTRICITY":"0.22782230",
       "INCLINATION":"26.3779",
       "RA_OF_ASC_NODE":"316.1628",
       "ARG_OF_PERICENTER":"216.7479",
       "MEAN_ANOMALY":"134.1974",
       "EPHEMERIS_TYPE":"0",
       "CLASSIFICATION_TYPE":"U",
       "NORAD_CAT_ID":"50213",
       "ELEMENT_SET_NO":"999",
       "REV_AT_EPOCH":"103",
       "BSTAR":"0.05629100000000",
       "MEAN_MOTION_DOT":"0.99999999",
       "MEAN_MOTION_DDOT":"-0.0000097901000",
       "SEMIMAJOR_AXIS":"8441.360",
       "PERIOD":"128.641",
       "APOAPSIS":"3986.354",
       "PERIAPSIS":"140.095",
       "OBJECT_TYPE":"ROCKET BODY",
       "RCS_SIZE":"LARGE",
       "COUNTRY_CODE":"US",
       "LAUNCH_DATE":"2021-12-19",
       "SITE":"AFETR",
       "DECAY_DATE":"2022-03-08",
       "FILE":"3349654",
       "GP_ID":"198162687",
       "TLE_LINE0":"0 FALCON 9 R\/B",
       "TLE_LINE1":"1 50213U 21126B   22066.64729155  .99999999 -97901-5  56291-1 0  9996",
       "TLE_LINE2":"2 50213  26.3779 316.1628 2278223 216.7479 134.1974 11.19397071  1038"
    }
 ]